[{"OBJECT_NAME":"HORS 2","OBJECT_ID":"2023-091AG","EPOCH":"2026-03-09T22:11:34.810944","MEAN_MOTION":15.2928008,"ECCENTRICITY":0.00098173,"INCLINATION":97.5195,"RA_OF_ASC_NODE":134.7443,"ARG_OF_PERICENTER":79.3164,"MEAN_ANOMALY":280.9181,"EPHEMERIS_TYPE":0,"CLASSIFICATION_TYPE":"U","NORAD_CAT_ID":57196,"ELEMENT_SET_NO":999,"REV_AT_EPOCH":14934,"BSTAR":0.00059338338,"MEAN_MOTION_DOT":0.00016821,"MEAN_MOTION_DDOT":0},{"OBJECT_NAME":"STARLINK-35428","OBJECT_ID":"2025-237B","EPOCH":"2026-03-09T22:05:18.399840","MEAN_MOTION":15.30283985,"ECCENTRICITY":0.00011106,"INCLINATION":53.1611,"RA_OF_ASC_NODE":38.7127,"ARG_OF_PERICENTER":123.7277,"MEAN_ANOMALY":236.383,"EPHEMERIS_TYPE":0,"CLASSIFICATION_TYPE":"U","NORAD_CAT_ID":66115,"ELEMENT_SET_NO":999,"REV_AT_EPOCH":2263,"BSTAR":0.0020127035,"MEAN_MOTION_DOT":0.00059889,"MEAN_MOTION_DDOT":0}]
